IRIDIUM 921 [-]         
1 24873U 97034E   24012.99189462  .00024410  00000+0  83880-3 0  9994
2 24873  86.3853   4.8091 0007957 110.4191 249.7912 15.29955661451515
IRIDIUM 26 [-]          
1 24903U 97043A   24012.92242923  .00000848  00000+0  28438-3 0  9990
2 24903  86.3977 329.3373 0002300  80.9305 279.2152 14.36155465381909
IRIDIUM 22 [-]          
1 24907U 97043E   24012.92745757  .00000750  00000+0  25656-3 0  9998
2 24907  86.3981 332.4473 0002235  86.9153 273.2299 14.35055659381996
DUMMY MASS 1 [-]        
1 24925U 97048A   24013.04562401  .00000715  00000+0  78624-4 0  9995
2 24925  86.3340  16.1064 0006713 172.4020 187.7307 14.85995573427955
DUMMY MASS 2 [-]        
1 24926U 97048B   24012.85490005  .00000699  00000+0  77292-4 0  9995
2 24926  86.3338  17.7097 0006972 186.2856 173.8282 14.85755675427475
IRIDIUM 29 [-]          
1 24944U 97051A   24012.91001798  .00000771  00000+0  26137-3 0  9995
2 24944  86.3963   2.3974 0002298  94.5376 265.6083 14.35514184378464
IRIDIUM 33 [-]          
1 24946U 97051C   24012.93287459  .00000531  00000+0  18236-3 0  9994
2 24946  86.3878   1.6530 0007513 355.4369   4.6757 14.34222240378015
IRIDIUM 28 [-]          
1 24948U 97051E   24013.01706144  .00000747  00000+0  24842-3 0  9992
2 24948  86.3970   0.1684 0002242  77.1624 282.9823 14.36453687379075
